start=new Date('2022-07-07T00:00:00.000Z').valueOf();
sats=[{"GP_ID":"207538924","PERIAPSIS":"545.636","TLE_LINE1":"1 48031U 21024BG  22187.56829837  .00002273  00000-0  17149-3 0  9992","MEAN_ANOMALY":"300.5868","ECCENTRICITY":"0.00023200","REF_FRAME":"TEME","RA_OF_ASC_NODE":"126.6388","MEAN_MOTION":"15.06390387","CLASSIFICATION_TYPE":"U","PERIOD":"95.593","NORAD_CAT_ID":"48031","FILE":"3508782","REV_AT_EPOCH":"7382","MEAN_ELEMENT_THEORY":"SGP4","APOAPSIS":"548.850","ELEMENT_SET_NO":"999","COUNTRY_CODE":"US","INCLINATION":"53.0569","SITE":"AFETR","EPHEMERIS_TYPE":"0","OBJECT_NAME":"STARLINK-2267","LAUNCH_DATE":"2021-03-24","DECAY_DATE":null,"EPOCH":"2022-07-06T13:38:20.979168","OBJECT_TYPE":"PAYLOAD","MEAN_MOTION_DDOT":"0.0000000000000","TIME_SYSTEM":"UTC","ARG_OF_PERICENTER":"59.5350","OBJECT_ID":"2021-024BG","TLE_LINE2":"2 48031  53.0569 126.6388 0002320  59.5350 300.5868 15.06390387 73826","SEMIMAJOR_AXIS":"6925.378","RCS_SIZE":"LARGE","CENTER_NAME":"EARTH","BSTAR":"0.00017149000000","MEAN_MOTION_DOT":"0.00002273"},{"MEAN_MOTION_DDOT":"0.0000000000000","OBJECT_TYPE":"PAYLOAD","EPOCH":"2022-07-06T13:23:45.278016","DECAY_DATE":null,"BSTAR":"0.00006783600000","MEAN_MOTION_DOT":"0.00000729","SEMIMAJOR_AXIS":"6925.394","RCS_SIZE":"LARGE","CENTER_NAME":"EARTH","ARG_OF_PERICENTER":"67.5783","TIME_SYSTEM":"UTC","OBJECT_ID":"2021-024BJ","TLE_LINE2":"2 48033  53.0557 236.6916 0001468  67.5783 292.5361 15.06385163 72345","REF_FRAME":"TEME","MEAN_MOTION":"15.06385163","RA_OF_ASC_NODE":"236.6916","ECCENTRICITY":"0.00014680","MEAN_ANOMALY":"292.5361","TLE_LINE1":"1 48033U 21024BJ  22187.55816294  .00000729  00000-0  67836-4 0  9999","GP_ID":"207539174","PERIAPSIS":"546.242","EPHEMERIS_TYPE":"0","OBJECT_NAME":"STARLINK-2286","LAUNCH_DATE":"2021-03-24","INCLINATION":"53.0557","SITE":"AFETR","COUNTRY_CODE":"US","PERIOD":"95.593","CLASSIFICATION_TYPE":"U","NORAD_CAT_ID":"48033","FILE":"3508782","REV_AT_EPOCH":"7234","MEAN_ELEMENT_THEORY":"SGP4","APOAPSIS":"548.276","ELEMENT_SET_NO":"999"},{"RA_OF_ASC_NODE":"235.4121","MEAN_MOTION":"15.06389830","REF_FRAME":"TEME","ECCENTRICITY":"0.00015860","MEAN_ANOMALY":"304.5189","TLE_LINE1":"1 48034U 21024BK  22187.84198129  .00001438  00000-0  11548-3 0  9998","PERIAPSIS":"546.146","GP_ID":"207544314","LAUNCH_DATE":"2021-03-24","OBJECT_NAME":"STARLINK-2288","EPHEMERIS_TYPE":"0","SITE":"AFETR","INCLINATION":"53.0540","COUNTRY_CODE":"US","APOAPSIS":"548.343","ELEMENT_SET_NO":"999","REV_AT_EPOCH":"7185","MEAN_ELEMENT_THEORY":"SGP4","FILE":"3508862","PERIOD":"95.593","NORAD_CAT_ID":"48034","CLASSIFICATION_TYPE":"U","MEAN_MOTION_DDOT":"0.0000000000000","EPOCH":"2022-07-06T20:12:27.183456","OBJECT_TYPE":"PAYLOAD","DECAY_DATE":null,"MEAN_MOTION_DOT":"0.00001438","BSTAR":"0.00011548000000","CENTER_NAME":"EARTH","SEMIMAJOR_AXIS":"6925.380","RCS_SIZE":"LARGE","TLE_LINE2":"2 48034  53.0540 235.4121 0001586  55.5950 304.5189 15.06389830 71859","OBJECT_ID":"2021-024BK","ARG_OF_PERICENTER":"55.5950","TIME_SYSTEM":"UTC"},{"SEMIMAJOR_AXIS":"6925.375","RCS_SIZE":"LARGE","CENTER_NAME":"EARTH","ARG_OF_PERICENTER":"63.1871","TIME_SYSTEM":"UTC","OBJECT_ID":"2021-024BM","TLE_LINE2":"2 48036  53.0547 236.8770 0001530  63.1871 296.9275 15.06391483 72330","BSTAR":"0.00010667000000","MEAN_MOTION_DOT":"0.00001307","DECAY_DATE":null,"MEAN_MOTION_DDOT":"0.0000000000000","EPOCH":"2022-07-06T12:25:21.206784","OBJECT_TYPE":"PAYLOAD","COUNTRY_CODE":"US","NORAD_CAT_ID":"48036","PERIOD":"95.593","CLASSIFICATION_TYPE":"U","FILE":"3508782","REV_AT_EPOCH":"7233","MEAN_ELEMENT_THEORY":"SGP4","ELEMENT_SET_NO":"999","APOAPSIS":"548.299","EPHEMERIS_TYPE":"0","OBJECT_NAME":"STARLINK-2295","LAUNCH_DATE":"2021-03-24","INCLINATION":"53.0547","SITE":"AFETR","TLE_LINE1":"1 48036U 21024BM  22187.51760656  .00001307  00000-0  10667-3 0  9990","GP_ID":"207538173","PERIAPSIS":"546.180","REF_FRAME":"TEME","MEAN_MOTION":"15.06391483","RA_OF_ASC_NODE":"236.8770","ECCENTRICITY":"0.00015300","MEAN_ANOMALY":"296.9275"},{"ARG_OF_PERICENTER":"83.4894","TIME_SYSTEM":"UTC","OBJECT_ID":"2021-027A","TLE_LINE2":"2 48092  53.0566   2.4223 0001324  83.4894 276.6245 15.06387327 71157","RCS_SIZE":"LARGE","SEMIMAJOR_AXIS":"6925.387","CENTER_NAME":"EARTH","MEAN_MOTION_DOT":"0.00001949","BSTAR":"0.00014973000000","DECAY_DATE":null,"EPOCH":"2022-07-06T10:57:10.432800","OBJECT_TYPE":"PAYLOAD","MEAN_MOTION_DDOT":"0.0000000000000","NORAD_CAT_ID":"48092","PERIOD":"95.593","CLASSIFICATION_TYPE":"U","FILE":"3508782","REV_AT_EPOCH":"7115","MEAN_ELEMENT_THEORY":"SGP4","APOAPSIS":"548.169","ELEMENT_SET_NO":"999","COUNTRY_CODE":"US","INCLINATION":"53.0566","SITE":"AFETR","EPHEMERIS_TYPE":"0","OBJECT_NAME":"STARLINK-2048","LAUNCH_DATE":"2021-04-07","GP_ID":"207539680","PERIAPSIS":"546.335","TLE_LINE1":"1 48092U 21027A   22187.45637075  .00001949  00000-0  14973-3 0  9992","ECCENTRICITY":"0.00013240","MEAN_ANOMALY":"276.6245","REF_FRAME":"TEME","RA_OF_ASC_NODE":"2.4223","MEAN_MOTION":"15.06387327"},{"DECAY_DATE":null,"EPOCH":"2022-07-06T02:05:42.061632","OBJECT_TYPE":"PAYLOAD","MEAN_MOTION_DDOT":"0.0000000000000","ARG_OF_PERICENTER":"66.5166","TIME_SYSTEM":"UTC","OBJECT_ID":"2021-027B","TLE_LINE2":"2 48093  53.0556  69.0007 0001843  66.5166 293.6017 15.06395565 70198","SEMIMAJOR_AXIS":"6925.362","RCS_SIZE":"LARGE","CENTER_NAME":"EARTH","BSTAR":"0.00007317100000","MEAN_MOTION_DOT":"0.00000808","GP_ID":"207538429","PERIAPSIS":"545.951","TLE_LINE1":"1 48093U 21027B   22187.08729238  .00000808  00000-0  73171-4 0  9994","MEAN_ANOMALY":"293.6017","ECCENTRICITY":"0.00018430","REF_FRAME":"TEME","MEAN_MOTION":"15.06395565","RA_OF_ASC_NODE":"69.0007","CLASSIFICATION_TYPE":"U","PERIOD":"95.592","NORAD_CAT_ID":"48093","FILE":"3508782","REV_AT_EPOCH":"7019","MEAN_ELEMENT_THEORY":"SGP4","APOAPSIS":"548.503","ELEMENT_SET_NO":"999","COUNTRY_CODE":"US","INCLINATION":"53.0556","SITE":"AFETR","EPHEMERIS_TYPE":"0","OBJECT_NAME":"STARLINK-2404","LAUNCH_DATE":"2021-04-07"},{"COUNTRY_CODE":"US","PERIOD":"95.593","CLASSIFICATION_TYPE":"U","NORAD_CAT_ID":"48094","FILE":"3508782","REV_AT_EPOCH":"7006","MEAN_ELEMENT_THEORY":"SGP4","APOAPSIS":"548.325","ELEMENT_SET_NO":"999","EPHEMERIS_TYPE":"0","OBJECT_NAME":"STARLINK-2412","LAUNCH_DATE":"2021-04-07","INCLINATION":"53.0560","SITE":"AFETR","TLE_LINE1":"1 48094U 21027C   22187.10478617  .00001264  00000-0  10375-3 0  9993","GP_ID":"207538679","PERIAPSIS":"546.160","REF_FRAME":"TEME","RA_OF_ASC_NODE":"78.7317","MEAN_MOTION":"15.06390668","MEAN_ANOMALY":"288.8504","ECCENTRICITY":"0.00015630","SEMIMAJOR_AXIS":"6925.377","RCS_SIZE":"LARGE","CENTER_NAME":"EARTH","TIME_SYSTEM":"UTC","ARG_OF_PERICENTER":"71.2655","OBJECT_ID":"2021-027C","TLE_LINE2":"2 48094  53.0560  78.7317 0001563  71.2655 288.8504 15.06390668 70062","BSTAR":"0.00010375000000","MEAN_MOTION_DOT":"0.00001264","DECAY_DATE":null,"MEAN_MOTION_DDOT":"0.0000000000000","EPOCH":"2022-07-06T02:30:53.525088","OBJECT_TYPE":"PAYLOAD"},{"EPHEMERIS_TYPE":"0","OBJECT_NAME":"STARLINK-2414","LAUNCH_DATE":"2021-04-07","INCLINATION":"53.0546","SITE":"AFETR","COUNTRY_CODE":"US","CLASSIFICATION_TYPE":"U","PERIOD":"95.593","NORAD_CAT_ID":"48095","FILE":"3508782","REV_AT_EPOCH":"7007","MEAN_ELEMENT_THEORY":"SGP4","APOAPSIS":"548.542","ELEMENT_SET_NO":"999","REF_FRAME":"TEME","RA_OF_ASC_NODE":"78.6832","MEAN_MOTION":"15.06389100","MEAN_ANOMALY":"296.8036","ECCENTRICITY":"0.00018700","TLE_LINE1":"1 48095U 21027D   22187.11215675  .00002119  00000-0  16117-3 0  9998","GP_ID":"207538931","PERIAPSIS":"545.952","MEAN_MOTION_DOT":"0.00002119","BSTAR":"0.00016117000000","RCS_SIZE":"MEDIUM","SEMIMAJOR_AXIS":"6925.382","CENTER_NAME":"EARTH","ARG_OF_PERICENTER":"63.3145","TIME_SYSTEM":"UTC","OBJECT_ID":"2021-027D","TLE_LINE2":"2 48095  53.0546  78.6832 0001870  63.3145 296.8036 15.06389100 70074","MEAN_MOTION_DDOT":"0.0000000000000","OBJECT_TYPE":"PAYLOAD","EPOCH":"2022-07-06T02:41:30.343200","DECAY_DATE":null},{"MEAN_MOTION_DDOT":"0.0000000000000","OBJECT_TYPE":"PAYLOAD","EPOCH":"2022-07-06T10:02:03.781248","DECAY_DATE":null,"BSTAR":"0.00008406200000","MEAN_MOTION_DOT":"0.00000970","RCS_SIZE":"LARGE","SEMIMAJOR_AXIS":"6925.394","CENTER_NAME":"EARTH","ARG_OF_PERICENTER":"66.7642","TIME_SYSTEM":"UTC","OBJECT_ID":"2021-027E","TLE_LINE2":"2 48096  53.0547  77.3117 0001613  66.7642 293.3517 15.06385064 70107","REF_FRAME":"TEME","MEAN_MOTION":"15.06385064","RA_OF_ASC_NODE":"77.3117","MEAN_ANOMALY":"293.3517","ECCENTRICITY":"0.00016130","TLE_LINE1":"1 48096U 21027E   22187.41809932  .00000970  00000-0  84062-4 0  9995","GP_ID":"207539181","PERIAPSIS":"546.142","EPHEMERIS_TYPE":"0","OBJECT_NAME":"STARLINK-2417","LAUNCH_DATE":"2021-04-07","INCLINATION":"53.0547","SITE":"AFETR","COUNTRY_CODE":"US","NORAD_CAT_ID":"48096","PERIOD":"95.593","CLASSIFICATION_TYPE":"U","FILE":"3508782","REV_AT_EPOCH":"7010","MEAN_ELEMENT_THEORY":"SGP4","ELEMENT_SET_NO":"999","APOAPSIS":"548.376"},{"MEAN_MOTION_DOT":"0.00000796","BSTAR":"0.00007234700000","CENTER_NAME":"EARTH","RCS_SIZE":"LARGE","SEMIMAJOR_AXIS":"6925.377","OBJECT_ID":"2021-027F","TLE_LINE2":"2 48097  53.0551  57.7114 0001504  85.8528 274.2632 15.06390745 70373","ARG_OF_PERICENTER":"85.8528","TIME_SYSTEM":"UTC","MEAN_MOTION_DDOT":"0.0000000000000","EPOCH":"2022-07-06T07:57:19.137600","OBJECT_TYPE":"PAYLOAD","DECAY_DATE":null,"OBJECT_NAME":"STARLINK-2418","LAUNCH_DATE":"2021-04-07","EPHEMERIS_TYPE":"0","SITE":"AFETR","INCLINATION":"53.0551","COUNTRY_CODE":"US","REV_AT_EPOCH":"7037","MEAN_ELEMENT_THEORY":"SGP4","ELEMENT_SET_NO":"999","APOAPSIS":"548.284","CLASSIFICATION_TYPE":"U","PERIOD":"95.593","NORAD_CAT_ID":"48097","FILE":"3508782","RA_OF_ASC_NODE":"57.7114","MEAN_MOTION":"15.06390745","REF_FRAME":"TEME","ECCENTRICITY":"0.00015040","MEAN_ANOMALY":"274.2632","TLE_LINE1":"1 48097U 21027F   22187.33147150  .00000796  00000-0  72347-4 0  9993","PERIAPSIS":"546.200","GP_ID":"207537930"}];
